     2.100          NAVIGATION                              RINEX VERSION / TYPE
fic2rin                                 05/01/2009 02:21:05 PGM / RUN BY / DATE
                                                            END OF HEADER
22 09  4 30 14  0  0.0  .200665090233D-03 -.682121026330D-12  .000000000000D+00
     .380000000000D+02  .661562500000D+02  .493627704432D-08  .160245770395D+01
     .336393713951D-05  .490491953678D-02  .870414078236D-05  .515366628265D+04
     .396000000000D+06 -.745058059692D-07  .118676140668D+01 -.819563865662D-07
     .940353591627D+00  .204093750000D+03 -.187035294460D+01 -.821105630917D-08
    -.275011455331D-09  .100000000000D+01  .152900000000D+04  .000000000000D+00
     .240000000000D+01  .000000000000D+00 -.176951289177D-07  .380000000000D+02
     .388806000000D+06  .400000000000D+01
23 09  4 30 14  0  0.0  .389754306525D-03  .227373675443D-12  .000000000000D+00
     .890000000000D+02  .763437500000D+02  .429625038464D-08  .200284124855D+00
     .367686152458D-05  .600050739013D-02  .421516597271D-05  .515362192726D+04
     .396000000000D+06  .100582838058D-06  .220405265281D+01 -.465661287308D-07
     .970377976618D+00  .302343750000D+03  .287768691343D+01 -.827820196320D-08
    -.550022910662D-10  .100000000000D+01  .152900000000D+04  .000000000000D+00
     .240000000000D+01  .000000000000D+00 -.200234353542D-07  .890000000000D+02
     .388806000000D+06  .400000000000D+01
24 09  4 30 14  0  0.0  .185234937817D-03  .295585778076D-11  .000000000000D+00
     .480000000000D+02  .712500000000D+01  .508271171534D-08  .257710306673D+01
     .419095158577D-06  .674910633825D-02  .739470124245D-05  .515367235374D+04
     .396000000000D+06  .819563865662D-07  .154450589830D+00  .199303030968D-06
     .951212409746D+00  .230468750000D+03 -.647175739913D+00 -.815676833357D-08
    -.252510518077D-09  .100000000000D+01  .152900000000D+04  .000000000000D+00
     .240000000000D+01  .000000000000D+00 -.139698386192D-08  .480000000000D+02
     .388806000000D+06  .400000000000D+01
25 09  4 30 14  0  0.0  .387606676668D-03  .203499439522D-10  .000000000000D+00
     .540000000000D+02 -.562812500000D+02  .421481842125D-08  .307120282877D+01
    -.286474823952D-05  .115234472323D-01  .314787030220D-05  .515365663528D+04
     .396000000000D+06  .260770320892D-07 -.313182597550D+01  .558793544769D-07
     .969601096898D+00  .324250000000D+03 -.120758007976D+01 -.800461913880D-08
    -.156077929844D-09  .100000000000D+01  .152900000000D+04  .000000000000D+00
     .240000000000D+01  .000000000000D+00 -.745058059692D-08  .540000000000D+02
     .388806000000D+06  .400000000000D+01
26 09  4 30 14  0  0.0  .590886920691D-04  .159161572810D-11  .000000000000D+00
     .580000000000D+02  .655312500000D+02  .389944814195D-08 -.848589035642D+00
     .368617475033D-05  .203942706576D-01  .492855906487D-05  .515487609863D+04
     .396000000000D+06  .558793544769D-07  .225311886667D+01  .426545739174D-06
     .992722514215D+00  .300000000000D+03  .999351794785D+00 -.812676708390D-08
    -.660741808263D-10  .100000000000D+01  .152900000000D+04  .000000000000D+00
     .240000000000D+01  .000000000000D+00 -.651925802231D-08  .580000000000D+02
     .388806000000D+06  .400000000000D+01
27 09  4 30 14  0  0.0  .451602973044D-04  .318323145621D-11  .000000000000D+00
     .390000000000D+02 -.529687500000D+02  .428374986395D-08  .122047225307D+01
    -.330619513988D-05  .208581613842D-01  .392459332943D-05  .515509818268D+04
     .396000000000D+06 -.163912773132D-06 -.309557584419D+01 -.359490513802D-06
     .974307485760D+00  .317031250000D+03 -.161377659810D+01 -.834784772137D-08
    -.185364864048D-09  .100000000000D+01  .152900000000D+04  .000000000000D+00
     .240000000000D+01  .000000000000D+00 -.419095158577D-08  .390000000000D+02
     .388806000000D+06  .400000000000D+01
29 09  4 30 14  0  0.0  .152266584337D-04  .409272615798D-11  .000000000000D+00
     .830000000000D+02 -.375000000000D+00  .468269505304D-08 -.232499604469D+01
     .745058059692D-07  .342134584207D-02  .804662704468D-05  .515368974304D+04
     .396000000000D+06 -.260770320892D-07 -.918080884771D+00  .484287738800D-07
     .959737497559D+00  .218937500000D+03 -.133114717718D+01 -.797854662421D-08
     .459662003910D-09  .100000000000D+01  .152900000000D+04  .000000000000D+00
     .240000000000D+01  .000000000000D+00 -.884756445885D-08  .830000000000D+02
     .388806000000D+06  .400000000000D+01
30 09  4 30 14  0  0.0  .142910983413D-03  .272848410532D-11  .000000000000D+00
     .410000000000D+02 -.805937500000D+02  .434268089009D-08  .234476933991D+01
    -.419653952122D-05  .113156560110D-01  .869296491146D-05  .515361141205D+04
     .396000000000D+06  .189989805222D-06 -.203307707933D+01 -.633299350739D-07
     .951597151350D+00  .206593750000D+03  .141360132752D+01 -.780139638805D-08
     .266796827444D-09  .100000000000D+01  .152900000000D+04  .000000000000D+00
     .240000000000D+01  .000000000000D+00 -.838190317154D-08  .410000000000D+02
     .388806000000D+06  .400000000000D+01
31 09  4 30 14  0  0.0 -.590835697949D-04 -.102318153949D-11  .000000000000D+00
     .290000000000D+02 -.678750000000D+02  .427839249793D-08 -.153420996424D+01
    -.340864062309D-05  .711572403088D-02  .426918268204D-05  .515370028877D+04
     .396000000000D+06 -.949949026108D-07 -.303957844735D+01  .614672899246D-07
     .972714846346D+00  .306000000000D+03 -.114558475976D+01 -.821498504424D-08
    -.639312344211D-10  .100000000000D+01  .152900000000D+04  .000000000000D+00
     .240000000000D+01  .000000000000D+00 -.130385160446D-07  .290000000000D+02
     .388806000000D+06  .400000000000D+01
32 09  4 30 14  0  0.0  .267844647169D-03 -.511590769747D-11  .000000000000D+00
     .890000000000D+02  .739687500000D+02  .450911639423D-08 -.623442318132D+00
     .397115945816D-05  .133306916105D-01  .900588929653D-05  .515358393669D+04
     .396000000000D+06 -.109896063805D-06  .123620063539D+01 -.119209289551D-06
     .964291677110D+00  .210468750000D+03 -.117207998801D+01 -.820855620503D-08
    -.198222542479D-09  .100000000000D+01  .152900000000D+04  .000000000000D+00
     .340000000000D+01  .000000000000D+00 -.325962901115D-08  .890000000000D+02
     .388806000000D+06  .400000000000D+01
10 09  4 30 13 59 44.0 -.152727589011D-04 -.682121026330D-12  .000000000000D+00
     .300000000000D+02  .602812500000D+02  .456947605130D-08  .124749452389D+01
     .348687171936D-05  .863162102178D-02  .100601464510D-04  .515359526443D+04
     .395984000000D+06 -.104308128357D-06  .117516638967D+01  .104308128357D-06
     .958646208948D+00  .186500000000D+03  .624426020822D+00 -.808569394447D-08
    -.457876215239D-09  .100000000000D+01  .152900000000D+04  .000000000000D+00
     .240000000000D+01  .000000000000D+00 -.279396772385D-08  .300000000000D+02
     .389316000000D+06  .400000000000D+01
32 09  4 30 13 59 44.0  .267846044153D-03 -.500222085975D-11  .000000000000D+00
     .200000000000D+01  .739687500000D+02  .450911639423D-08 -.625775970904D+00
     .397115945816D-05  .133306925418D-01  .900588929653D-05  .515358393478D+04
     .395984000000D+06 -.109896063805D-06  .123620077291D+01 -.119209289551D-06
     .964291674185D+00  .210468750000D+03 -.117208024109D+01 -.820855620503D-08
    -.198222542479D-09  .100000000000D+01  .152900000000D+04  .000000000000D+00
     .240000000000D+01  .000000000000D+00 -.325962901115D-08  .200000000000D+01
     .390936000000D+06  .400000000000D+01
 5 09  4 30 13 59 44.0 -.556255690753D-04 -.170530256582D-10  .000000000000D+00
     .300000000000D+01 -.910312500000D+02  .449875881993D-08  .289129758725D+01
    -.469759106636D-05  .957049231511D-02  .848248600960D-05  .515357954788D+04
     .395984000000D+06  .633299350739D-07 -.208686991714D+01 -.186264514923D-08
     .945767994805D+00  .207968750000D+03  .129998579177D+01 -.785318425950D-08
     .228938107620D-09  .100000000000D+01  .152900000000D+04  .000000000000D+00
     .240000000000D+01  .630000000000D+02 -.419095158577D-08  .300000000000D+01
     .392706000000D+06  .400000000000D+01
19 09  4 30 13 59 44.0  .269827432930D-04 -.102318153949D-11  .000000000000D+00
     .300000000000D+01 -.425000000000D+01  .487020286350D-08  .740798621716D+00
    -.184401869774D-06  .551729672588D-02  .797398388386D-05  .515359035110D+04
     .395984000000D+06  .104308128357D-06 -.870133237091D+00 -.186264514923D-08
     .957271640881D+00  .223843750000D+03 -.372336075418D+00 -.810890919719D-08
     .386444668400D-09  .100000000000D+01  .152900000000D+04  .000000000000D+00
     .240000000000D+01  .000000000000D+00 -.144354999065D-07  .300000000000D+01
     .394236000000D+06  .400000000000D+01
 5 09  4 30 15 59 44.0 -.557485036552D-04 -.170530256582D-10  .000000000000D+00
     .400000000000D+01 -.983750000000D+02  .449947313540D-08 -.234160958023D+01
    -.504963099957D-05  .957096391357D-02  .827573239803D-05  .515357888985D+04
     .403184000000D+06  .117346644402D-06 -.208692590886D+01 -.121071934700D-06
     .945769318745D+00  .210531250000D+03  .129994645537D+01 -.786925635754D-08
     .123576576032D-09  .100000000000D+01  .152900000000D+04  .000000000000D+00
     .240000000000D+01  .630000000000D+02 -.419095158577D-08  .400000000000D+01
     .396006000000D+06  .400000000000D+01
10 09  4 30 15 59 44.0 -.152778811753D-04 -.682121026330D-12  .000000000000D+00
     .310000000000D+02  .681562500000D+02  .460412035152D-08  .229784576268D+01
     .340119004250D-05  .863204279449D-02  .101998448372D-04  .515359319115D+04
     .403184000000D+06 -.191852450371D-06  .117510786124D+01 -.150874257088D-06
     .958644092106D+00  .182750000000D+03  .624305113568D+00 -.788068540504D-08
    -.330013746397D-09  .100000000000D+01  .152900000000D+04  .000000000000D+00
     .240000000000D+01  .000000000000D+00 -.279396772385D-08  .310000000000D+02
     .396006000000D+06  .400000000000D+01
